{"type": "FeatureCollection", "features": [ {"type": "Feature", "properties": {"norad_id": 40664, "name": "SKY MEXICO-1", "group": "intelsat", "lat": 0.025143783706118673, "lon": 146.3007592049917, "alt_km": 35793.37998416596, "timestamp": "2025-12-09T09:46:47.315001+00:00", "meta": {"OBJECT_NAME": "SKY MEXICO-1", "OBJECT_ID": "2015-026B", "EPOCH": "2025-12-08T21:47:24.447840", "MEAN_MOTION": 1.00270859, "ECCENTRICITY": 0.00027564, "INCLINATION": 0.0226, "RA_OF_ASC_NODE": 57.8612, "ARG_OF_PERICENTER": 215.4183, "MEAN_ANOMALY": 52.7141, "EPHEMERIS_TYPE": 0, "CLASSIFICATION_TYPE": "U", "NORAD_CAT_ID": 40664, "ELEMENT_SET_NO": 999, "REV_AT_EPOCH": 3854, "BSTAR": 0, "MEAN_MOTION_DOT": -2.32e-06, "MEAN_MOTION_DDOT": 0}, "tle": {"line1": "1 40664U 15026B   25342.90792185 -.00000232  00000+0  00000+0 0  9997", "line2": "2 40664   0.0226  57.8612 0002756 215.4183  52.7141  1.00270859 38547"}}, "geometry": {"type": "Point", "coordinates": [146.3007592049917, 0.025143783706118673]}}, {"type": "Feature", "properties": {"norad_id": 40874, "name": "INTELSAT 34 (IS-34)", "group": "intelsat", "lat": -0.014337412153581794, "lon": 169.59942034969384, "alt_km": 35783.15117846083, "timestamp": "2025-12-09T09:46:47.315013+00:00", "meta": {"OBJECT_NAME": "INTELSAT 34 (IS-34)", "OBJECT_ID": "2015-039A", "EPOCH": "2025-12-08T20:11:15.512064", "MEAN_MOTION": 1.00271316, "ECCENTRICITY": 7.484e-05, "INCLINATION": 0.0137, "RA_OF_ASC_NODE": 305.0745, "ARG_OF_PERICENTER": 229.1889, "MEAN_ANOMALY": 150.9006, "EPHEMERIS_TYPE": 0, "CLASSIFICATION_TYPE": "U", "NORAD_CAT_ID": 40874, "ELEMENT_SET_NO": 999, "REV_AT_EPOCH": 3771, "BSTAR": 0, "MEAN_MOTION_DOT": -2.83e-06, "MEAN_MOTION_DDOT": 0}, "tle": {"line1": "1 40874U 15039A   25342.84115176 -.00000283  00000+0  00000+0 0  9992", "line2": "2 40874   0.0137 305.0745 0000748 229.1889 150.9006  1.00271316 37718"}}, "geometry": {"type": "Point", "coordinates": [169.59942034969384, -0.014337412153581794]}}, {"type": "Feature", "properties": {"norad_id": 41581, "name": "INTELSAT 31 (IS-31)", "group": "intelsat", "lat": -0.002786774678632605, "lon": 130.00284465724764, "alt_km": 35786.84865482266, "timestamp": "2025-12-09T09:46:47.315025+00:00", "meta": {"OBJECT_NAME": "INTELSAT 31 (IS-31)", "OBJECT_ID": "2016-035A", "EPOCH": "2025-12-09T02:50:55.716288", "MEAN_MOTION": 1.00269221, "ECCENTRICITY": 0.0001876, "INCLINATION": 0.0183, "RA_OF_ASC_NODE": 271.2034, "ARG_OF_PERICENTER": 308.8041, "MEAN_ANOMALY": 165.7734, "EPHEMERIS_TYPE": 0, "CLASSIFICATION_TYPE": "U", "NORAD_CAT_ID": 41581, "ELEMENT_SET_NO": 999, "REV_AT_EPOCH": 3477, "BSTAR": 0, "MEAN_MOTION_DOT": -1.48e-06, "MEAN_MOTION_DDOT": 0}, "tle": {"line1": "1 41581U 16035A   25343.11870042 -.00000148  00000+0  00000+0 0  9996", "line2": "2 41581   0.0183 271.2034 0001876 308.8041 165.7734  1.00269221 34775"}}, "geometry": {"type": "Point", "coordinates": [130.00284465724764, -0.002786774678632605]}}, {"type": "Feature", "properties": {"norad_id": 41747, "name": "INTELSAT 36 (IS-36)", "group": "intelsat", "lat": -0.027106112885008422, "lon": -66.42005446603777, "alt_km": 35781.080179842094, "timestamp": "2025-12-09T09:46:47.315038+00:00", "meta": {"OBJECT_NAME": "INTELSAT 36 (IS-36)", "OBJECT_ID": "2016-053A", "EPOCH": "2025-12-09T03:37:36.247008", "MEAN_MOTION": 1.00269853, "ECCENTRICITY": 0.0001422, "INCLINATION": 0.0118, "RA_OF_ASC_NODE": 357.5426, "ARG_OF_PERICENTER": 318.485, "MEAN_ANOMALY": 245.015, "EPHEMERIS_TYPE": 0, "CLASSIFICATION_TYPE": "U", "NORAD_CAT_ID": 41747, "ELEMENT_SET_NO": 999, "REV_AT_EPOCH": 3404, "BSTAR": 0, "MEAN_MOTION_DOT": -2.2e-07, "MEAN_MOTION_DDOT": 0}, "tle": {"line1": "1 41747U 16053A   25343.15111397 -.00000022  00000+0  00000+0 0  9996", "line2": "2 41747   0.0118 357.5426 0001422 318.4850 245.0150  1.00269853 34047"}}, "geometry": {"type": "Point", "coordinates": [-66.42005446603777, -0.027106112885008422]}}, {"type": "Feature", "properties": {"norad_id": 41945, "name": "INTELSAT 32E (IS-32E)", "group": "intelsat", "lat": 0.01580836954572307, "lon": -178.07323916510202, "alt_km": 35786.391142099295, "timestamp": "2025-12-09T09:46:47.315050+00:00", "meta": {"OBJECT_NAME": "INTELSAT 32E (IS-32E)", "OBJECT_ID": "2017-007B", "EPOCH": "2025-12-08T09:58:28.100928", "MEAN_MOTION": 1.00273553, "ECCENTRICITY": 2.799e-05, "INCLINATION": 0.0258, "RA_OF_ASC_NODE": 66.5377, "ARG_OF_PERICENTER": 242.4063, "MEAN_ANOMALY": 234.9251, "EPHEMERIS_TYPE": 0, "CLASSIFICATION_TYPE": "U", "NORAD_CAT_ID": 41945, "ELEMENT_SET_NO": 999, "REV_AT_EPOCH": 3231, "BSTAR": 0, "MEAN_MOTION_DOT": -2.66e-06, "MEAN_MOTION_DDOT": 0}, "tle": {"line1": "1 41945U 17007B   25342.41560302 -.00000266  00000+0  00000+0 0  9998", "line2": "2 41945   0.0258  66.5377 0000279 242.4063 234.9251  1.00273553 32314"}}, "geometry": {"type": "Point", "coordinates": [-178.07323916510202, 0.01580836954572307]}}, {"type": "Feature", "properties": {"norad_id": 42818, "name": "INTELSAT 35E (IS-35E)", "group": "intelsat", "lat": -0.0060320286509358174, "lon": -169.43482891034765, "alt_km": 35784.33662102209, "timestamp": "2025-12-09T09:46:47.315062+00:00", "meta": {"OBJECT_NAME": "INTELSAT 35E (IS-35E)", "OBJECT_ID": "2017-041A", "EPOCH": "2025-12-09T03:08:09.067200", "MEAN_MOTION": 1.00269564, "ECCENTRICITY": 0.0002298, "INCLINATION": 0.0022, "RA_OF_ASC_NODE": 6.2141, "ARG_OF_PERICENTER": 260.1671, "MEAN_ANOMALY": 184.2831, "EPHEMERIS_TYPE": 0, "CLASSIFICATION_TYPE": "U", "NORAD_CAT_ID": 42818, "ELEMENT_SET_NO": 999, "REV_AT_EPOCH": 3091, "BSTAR": 0, "MEAN_MOTION_DOT": -2.36e-06, "MEAN_MOTION_DDOT": 0}, "tle": {"line1": "1 42818U 17041A   25343.13066050 -.00000236  00000+0  00000+0 0  9994", "line2": "2 42818   0.0022   6.2141 0002298 260.1671 184.2831  1.00269564 30910"}}, "geometry": {"type": "Point", "coordinates": [-169.43482891034765, -0.0060320286509358174]}}, {"type": "Feature", "properties": {"norad_id": 42950, "name": "INTELSAT 37E (IS-37E)", "group": "intelsat", "lat": -0.017750448012943405, "lon": -152.93652843263666, "alt_km": 35776.52520557094, "timestamp": "2025-12-09T09:46:47.315074+00:00", "meta": {"OBJECT_NAME": "INTELSAT 37E (IS-37E)", "OBJECT_ID": "2017-059A", "EPOCH": "2025-12-09T03:12:53.611776", "MEAN_MOTION": 1.00270721, "ECCENTRICITY": 0.0003393, "INCLINATION": 0.0168, "RA_OF_ASC_NODE": 6.5052, "ARG_OF_PERICENTER": 247.1332, "MEAN_ANOMALY": 214.7146, "EPHEMERIS_TYPE": 0, "CLASSIFICATION_TYPE": "U", "NORAD_CAT_ID": 42950, "ELEMENT_SET_NO": 999, "REV_AT_EPOCH": 3016, "BSTAR": 0, "MEAN_MOTION_DOT": -1.39e-06, "MEAN_MOTION_DDOT": 0}, "tle": {"line1": "1 42950U 17059A   25343.13395384 -.00000139  00000+0  00000+0 0  9997", "line2": "2 42950   0.0168   6.5052 0003393 247.1332 214.7146  1.00270721 30160"}}, "geometry": {"type": "Point", "coordinates": [-152.93652843263666, -0.017750448012943405]}}, {"type": "Feature", "properties": {"norad_id": 43632, "name": "AZERSPACE 2 (IS-38)", "group": "intelsat", "lat": -0.0354365907052673, "lon": -89.79597253883038, "alt_km": 35779.98250345636, "timestamp": "2025-12-09T09:46:47.315086+00:00", "meta": {"OBJECT_NAME": "AZERSPACE 2 (IS-38)", "OBJECT_ID": "2018-074A", "EPOCH": "2025-12-09T03:30:51.892416", "MEAN_MOTION": 1.00270269, "ECCENTRICITY": 0.000156, "INCLINATION": 0.0168, "RA_OF_ASC_NODE": 340.0792, "ARG_OF_PERICENTER": 279.7888, "MEAN_ANOMALY": 276.0995, "EPHEMERIS_TYPE": 0, "CLASSIFICATION_TYPE": "U", "NORAD_CAT_ID": 43632, "ELEMENT_SET_NO": 999, "REV_AT_EPOCH": 2654, "BSTAR": 0, "MEAN_MOTION_DOT": 1.39e-06, "MEAN_MOTION_DDOT": 0}, "tle": {"line1": "1 43632U 18074A   25343.14643394  .00000139  00000+0  00000+0 0  9990", "line2": "2 43632   0.0168 340.0792 0001560 279.7888 276.0995  1.00270269 26543"}}, "geometry": {"type": "Point", "coordinates": [-89.79597253883038, -0.0354365907052673]}}, {"type": "Feature", "properties": {"norad_id": 43633, "name": "HORIZONS-3E", "group": "intelsat", "lat": 0.011958836691019527, "lon": 34.11686131441955, "alt_km": 35788.87992111503, "timestamp": "2025-12-09T09:46:47.315098+00:00", "meta": {"OBJECT_NAME": "HORIZONS-3E", "OBJECT_ID": "2018-074B", "EPOCH": "2025-12-09T03:34:38.599104", "MEAN_MOTION": 1.00269188, "ECCENTRICITY": 0.0001223, "INCLINATION": 0.0427, "RA_OF_ASC_NODE": 177.1186, "ARG_OF_PERICENTER": 103.4873, "MEAN_ANOMALY": 20.2129, "EPHEMERIS_TYPE": 0, "CLASSIFICATION_TYPE": "U", "NORAD_CAT_ID": 43633, "ELEMENT_SET_NO": 999, "REV_AT_EPOCH": 2643, "BSTAR": 0, "MEAN_MOTION_DOT": -2.9e-07, "MEAN_MOTION_DDOT": 0}, "tle": {"line1": "1 43633U 18074B   25343.14905786 -.00000029  00000+0  00000+0 0  9996", "line2": "2 43633   0.0427 177.1186 0001223 103.4873  20.2129  1.00269188 26435"}}, "geometry": {"type": "Point", "coordinates": [34.11686131441955, 0.011958836691019527]}}, {"type": "Feature", "properties": {"norad_id": 44333, "name": "AT&T T-16", "group": "intelsat", "lat": 0.027697242885285318, "lon": 124.23166311836474, "alt_km": 35784.54992228923, "timestamp": "2025-12-09T09:46:47.315110+00:00", "meta": {"OBJECT_NAME": "AT&T T-16", "OBJECT_ID": "2019-034A", "EPOCH": "2025-12-09T04:51:28.033056", "MEAN_MOTION": 1.00269398, "ECCENTRICITY": 6.16e-05, "INCLINATION": 0.023, "RA_OF_ASC_NODE": 59.8704, "ARG_OF_PERICENTER": 96.056, "MEAN_ANOMALY": 254.2817, "EPHEMERIS_TYPE": 0, "CLASSIFICATION_TYPE": "U", "NORAD_CAT_ID": 44333, "ELEMENT_SET_NO": 999, "REV_AT_EPOCH": 2372, "BSTAR": 0, "MEAN_MOTION_DOT": -1.13e-06, "MEAN_MOTION_DDOT": 0}, "tle": {"line1": "1 44333U 19034A   25343.20240779 -.00000113  00000+0  00000+0 0  9996", "line2": "2 44333   0.0230  59.8704 0000616  96.0560 254.2817  1.00269398 23727"}}, "geometry": {"type": "Point", "coordinates": [124.23166311836474, 0.027697242885285318]}}]}